start=new Date('2022-02-23T00:00:00.000Z').valueOf();
sats=[{"NORAD_CAT_ID":"48565","DECAY_DATE":null,"MEAN_ELEMENT_THEORY":"SGP4","RCS_SIZE":"LARGE","CLASSIFICATION_TYPE":"U","MEAN_MOTION_DDOT":"0.0000000000000","OBJECT_TYPE":"PAYLOAD","REF_FRAME":"TEME","PERIAPSIS":"546.212","MEAN_MOTION":"15.06400724","APOAPSIS":"548.211","PERIOD":"95.592","RA_OF_ASC_NODE":"276.8466","EPOCH":"2022-02-22T20:51:32.840640","REV_AT_EPOCH":"4276","LAUNCH_DATE":"2021-05-15","ARG_OF_PERICENTER":"71.0489","GP_ID":"196686037","ECCENTRICITY":"0.00014430","TIME_SYSTEM":"UTC","FILE":"3314780","TLE_LINE2":"2 48565  53.0528 276.8466 0001443  71.0489 289.0656 15.06400724 42767","SEMIMAJOR_AXIS":"6925.346","CENTER_NAME":"EARTH","BSTAR":"0.00013605000000","INCLINATION":"53.0528","OBJECT_ID":"2021-041N","COUNTRY_CODE":"US","OBJECT_NAME":"STARLINK-2191","MEAN_ANOMALY":"289.0656","TLE_LINE1":"1 48565U 21041N   22053.86913010  .00001746  00000-0  13605-3 0  9992","SITE":"AFETR","MEAN_MOTION_DOT":"0.00001746","ELEMENT_SET_NO":"999","EPHEMERIS_TYPE":"0"},{"ECCENTRICITY":"0.00015430","GP_ID":"196686288","FILE":"3314780","TIME_SYSTEM":"UTC","LAUNCH_DATE":"2021-05-15","REV_AT_EPOCH":"4262","ARG_OF_PERICENTER":"70.0163","OBJECT_NAME":"STARLINK-2214","TLE_LINE1":"1 48566U 21041P   22053.89307451  .00000857  00000-0  76464-4 0  9997","MEAN_ANOMALY":"290.0992","COUNTRY_CODE":"US","MEAN_MOTION_DOT":"0.00000857","SITE":"AFETR","ELEMENT_SET_NO":"999","EPHEMERIS_TYPE":"0","CENTER_NAME":"EARTH","BSTAR":"0.00007646400000","TLE_LINE2":"2 48566  53.0543 286.7357 0001543  70.0163 290.0992 15.06395258 42628","SEMIMAJOR_AXIS":"6925.363","INCLINATION":"53.0543","OBJECT_ID":"2021-041P","CLASSIFICATION_TYPE":"U","MEAN_MOTION_DDOT":"0.0000000000000","OBJECT_TYPE":"PAYLOAD","NORAD_CAT_ID":"48566","MEAN_ELEMENT_THEORY":"SGP4","RCS_SIZE":"LARGE","DECAY_DATE":null,"APOAPSIS":"548.297","EPOCH":"2022-02-22T21:26:01.637664","PERIOD":"95.592","RA_OF_ASC_NODE":"286.7357","REF_FRAME":"TEME","MEAN_MOTION":"15.06395258","PERIAPSIS":"546.160"},{"INCLINATION":"53.0549","OBJECT_ID":"2021-041Q","CENTER_NAME":"EARTH","BSTAR":"0.00007712200000","TLE_LINE2":"2 48567  53.0549 286.6691 0001528  73.4907 286.6250 15.06401404 42620","SEMIMAJOR_AXIS":"6925.344","MEAN_MOTION_DOT":"0.00000867","SITE":"AFETR","ELEMENT_SET_NO":"999","EPHEMERIS_TYPE":"0","OBJECT_NAME":"STARLINK-2215","MEAN_ANOMALY":"286.6250","TLE_LINE1":"1 48567U 21041Q   22053.90506459  .00000867  00000-0  77122-4 0  9992","COUNTRY_CODE":"US","ARG_OF_PERICENTER":"73.4907","LAUNCH_DATE":"2021-05-15","REV_AT_EPOCH":"4262","FILE":"3314780","TIME_SYSTEM":"UTC","ECCENTRICITY":"0.00015280","GP_ID":"196686539","MEAN_MOTION":"15.06401404","PERIAPSIS":"546.151","REF_FRAME":"TEME","EPOCH":"2022-02-22T21:43:17.580576","RA_OF_ASC_NODE":"286.6691","PERIOD":"95.592","APOAPSIS":"548.267","MEAN_ELEMENT_THEORY":"SGP4","RCS_SIZE":"LARGE","DECAY_DATE":null,"NORAD_CAT_ID":"48567","OBJECT_TYPE":"PAYLOAD","CLASSIFICATION_TYPE":"U","MEAN_MOTION_DDOT":"0.0000000000000"},{"OBJECT_ID":"2021-041R","INCLINATION":"53.0545","BSTAR":"-0.00009234600000","CENTER_NAME":"EARTH","SEMIMAJOR_AXIS":"6925.373","TLE_LINE2":"2 48568  53.0545 276.6171 0001562  82.2695 277.8471 15.06391897 42765","EPHEMERIS_TYPE":"0","SITE":"AFETR","ELEMENT_SET_NO":"999","MEAN_MOTION_DOT":"-0.00001656","TLE_LINE1":"1 48568U 21041R   22053.91705224 -.00001656  00000-0 -92346-4 0  9999","MEAN_ANOMALY":"277.8471","OBJECT_NAME":"STARLINK-2217","COUNTRY_CODE":"US","ARG_OF_PERICENTER":"82.2695","LAUNCH_DATE":"2021-05-15","REV_AT_EPOCH":"4276","FILE":"3314780","TIME_SYSTEM":"UTC","ECCENTRICITY":"0.00015620","GP_ID":"196685287","MEAN_MOTION":"15.06391897","PERIAPSIS":"546.157","REF_FRAME":"TEME","EPOCH":"2022-02-22T22:00:33.313536","RA_OF_ASC_NODE":"276.6171","PERIOD":"95.593","APOAPSIS":"548.320","RCS_SIZE":"MEDIUM","MEAN_ELEMENT_THEORY":"SGP4","DECAY_DATE":null,"NORAD_CAT_ID":"48568","OBJECT_TYPE":"PAYLOAD","MEAN_MOTION_DDOT":"0.0000000000000","CLASSIFICATION_TYPE":"U"},{"MEAN_MOTION_DDOT":"0.0000000000000","CLASSIFICATION_TYPE":"U","OBJECT_TYPE":"PAYLOAD","NORAD_CAT_ID":"48569","RCS_SIZE":"LARGE","MEAN_ELEMENT_THEORY":"SGP4","DECAY_DATE":null,"APOAPSIS":"548.306","EPOCH":"2022-02-22T21:02:10.049280","PERIOD":"95.592","RA_OF_ASC_NODE":"276.8149","REF_FRAME":"TEME","MEAN_MOTION":"15.06401008","PERIAPSIS":"546.115","ECCENTRICITY":"0.00015820","GP_ID":"196685537","TIME_SYSTEM":"UTC","FILE":"3314780","LAUNCH_DATE":"2021-05-15","REV_AT_EPOCH":"4276","ARG_OF_PERICENTER":"66.7998","TLE_LINE1":"1 48569U 21041S   22053.87650520  .00005143  00000-0  36388-3 0  9999","MEAN_ANOMALY":"293.3158","OBJECT_NAME":"STARLINK-2219","COUNTRY_CODE":"US","EPHEMERIS_TYPE":"0","ELEMENT_SET_NO":"999","SITE":"AFETR","MEAN_MOTION_DOT":"0.00005143","BSTAR":"0.00036388000000","CENTER_NAME":"EARTH","SEMIMAJOR_AXIS":"6925.345","TLE_LINE2":"2 48569  53.0533 276.8149 0001582  66.7998 293.3158 15.06401008 42766","INCLINATION":"53.0533","OBJECT_ID":"2021-041S"},{"DECAY_DATE":null,"MEAN_ELEMENT_THEORY":"SGP4","RCS_SIZE":"LARGE","NORAD_CAT_ID":"48570","OBJECT_TYPE":"PAYLOAD","CLASSIFICATION_TYPE":"U","MEAN_MOTION_DDOT":"0.0000000000000","PERIAPSIS":"546.075","MEAN_MOTION":"15.06395318","REF_FRAME":"TEME","RA_OF_ASC_NODE":"286.5525","PERIOD":"95.592","EPOCH":"2022-02-22T22:20:27.334752","APOAPSIS":"548.381","ARG_OF_PERICENTER":"69.8633","LAUNCH_DATE":"2021-05-15","REV_AT_EPOCH":"4262","FILE":"3314780","TIME_SYSTEM":"UTC","GP_ID":"196686789","ECCENTRICITY":"0.00016650","INCLINATION":"53.0541","OBJECT_ID":"2021-041T","TLE_LINE2":"2 48570  53.0541 286.5525 0001665  69.8633 290.2535 15.06395318 42621","SEMIMAJOR_AXIS":"6925.363","CENTER_NAME":"EARTH","BSTAR":"0.00031436000000","SITE":"AFETR","MEAN_MOTION_DOT":"0.00004403","ELEMENT_SET_NO":"999","EPHEMERIS_TYPE":"0","COUNTRY_CODE":"US","OBJECT_NAME":"STARLINK-2220","TLE_LINE1":"1 48570U 21041T   22053.93087193  .00004403  00000-0  31436-3 0  9995","MEAN_ANOMALY":"290.2535"},{"MEAN_MOTION_DOT":"0.00000707","SITE":"AFETR","ELEMENT_SET_NO":"999","EPHEMERIS_TYPE":"0","COUNTRY_CODE":"US","OBJECT_NAME":"STARLINK-2221","TLE_LINE1":"1 48571U 21041U   22053.93823682  .00000707  00000-0  66336-4 0  9998","MEAN_ANOMALY":"291.1857","OBJECT_ID":"2021-041U","INCLINATION":"53.0543","TLE_LINE2":"2 48571  53.0543 286.5374 0001512  68.9294 291.1857 15.06396167 42631","SEMIMAJOR_AXIS":"6925.360","CENTER_NAME":"EARTH","BSTAR":"0.00006633600000","TIME_SYSTEM":"UTC","FILE":"3314780","GP_ID":"196687040","ECCENTRICITY":"0.00015120","ARG_OF_PERICENTER":"68.9294","LAUNCH_DATE":"2021-05-15","REV_AT_EPOCH":"4263","PERIOD":"95.592","RA_OF_ASC_NODE":"286.5374","EPOCH":"2022-02-22T22:31:03.661248","APOAPSIS":"548.272","PERIAPSIS":"546.178","MEAN_MOTION":"15.06396167","REF_FRAME":"TEME","OBJECT_TYPE":"PAYLOAD","CLASSIFICATION_TYPE":"U","MEAN_MOTION_DDOT":"0.0000000000000","DECAY_DATE":null,"MEAN_ELEMENT_THEORY":"SGP4","RCS_SIZE":"LARGE","NORAD_CAT_ID":"48571"},{"REV_AT_EPOCH":"4263","LAUNCH_DATE":"2021-05-15","ARG_OF_PERICENTER":"78.6581","GP_ID":"196685788","ECCENTRICITY":"0.00014560","FILE":"3314780","TIME_SYSTEM":"UTC","SEMIMAJOR_AXIS":"6925.366","TLE_LINE2":"2 48572  53.0545 286.5417 0001456  78.6581 281.4572 15.06394324 42635","BSTAR":"0.00004469100000","CENTER_NAME":"EARTH","OBJECT_ID":"2021-041V","INCLINATION":"53.0545","COUNTRY_CODE":"US","MEAN_ANOMALY":"281.4572","TLE_LINE1":"1 48572U 21041V   22053.93455652  .00000384  00000-0  44691-4 0  9998","OBJECT_NAME":"STARLINK-2222","EPHEMERIS_TYPE":"0","SITE":"AFETR","ELEMENT_SET_NO":"999","MEAN_MOTION_DOT":"0.00000384","NORAD_CAT_ID":"48572","DECAY_DATE":null,"RCS_SIZE":"LARGE","MEAN_ELEMENT_THEORY":"SGP4","MEAN_MOTION_DDOT":"0.0000000000000","CLASSIFICATION_TYPE":"U","OBJECT_TYPE":"PAYLOAD","REF_FRAME":"TEME","PERIAPSIS":"546.223","MEAN_MOTION":"15.06394324","APOAPSIS":"548.239","RA_OF_ASC_NODE":"286.5417","PERIOD":"95.593","EPOCH":"2022-02-22T22:25:45.683328"},{"ARG_OF_PERICENTER":"65.5680","LAUNCH_DATE":"2021-05-15","REV_AT_EPOCH":"4276","TIME_SYSTEM":"UTC","FILE":"3314780","GP_ID":"196686038","ECCENTRICITY":"0.00019570","OBJECT_ID":"2021-041W","INCLINATION":"53.0539","TLE_LINE2":"2 48573  53.0539 276.6281 0001957  65.5680 294.5513 15.06398756 42766","SEMIMAJOR_AXIS":"6925.352","CENTER_NAME":"EARTH","BSTAR":"0.00007625800000","SITE":"AFETR","ELEMENT_SET_NO":"999","MEAN_MOTION_DOT":"0.00000854","EPHEMERIS_TYPE":"0","COUNTRY_CODE":"US","OBJECT_NAME":"STARLINK-2224","TLE_LINE1":"1 48573U 21041W   22053.91336646  .00000854  00000-0  76258-4 0  9994","MEAN_ANOMALY":"294.5513","DECAY_DATE":null,"MEAN_ELEMENT_THEORY":"SGP4","RCS_SIZE":"LARGE","NORAD_CAT_ID":"48573","OBJECT_TYPE":"PAYLOAD","CLASSIFICATION_TYPE":"U","MEAN_MOTION_DDOT":"0.0000000000000","PERIAPSIS":"545.862","MEAN_MOTION":"15.06398756","REF_FRAME":"TEME","RA_OF_ASC_NODE":"276.6281","PERIOD":"95.592","EPOCH":"2022-02-22T21:55:14.862144","APOAPSIS":"548.573"},{"MEAN_MOTION":"15.06369670","PERIAPSIS":"546.026","REF_FRAME":"TEME","EPOCH":"2022-02-23T00:00:00.999648","RA_OF_ASC_NODE":"246.2449","PERIOD":"95.594","APOAPSIS":"548.587","RCS_SIZE":"LARGE","MEAN_ELEMENT_THEORY":"SGP4","DECAY_DATE":null,"NORAD_CAT_ID":"48574","OBJECT_TYPE":"PAYLOAD","MEAN_MOTION_DDOT":"0.0000000000000","CLASSIFICATION_TYPE":"U","INCLINATION":"53.0507","OBJECT_ID":"2021-041X","BSTAR":"0.00284310000000","CENTER_NAME":"EARTH","SEMIMAJOR_AXIS":"6925.442","TLE_LINE2":"2 48574  53.0507 246.2449 0001849  60.3697 259.9901 15.06369670  3566","EPHEMERIS_TYPE":"0","MEAN_MOTION_DOT":"0.00042287","SITE":"AFETR","ELEMENT_SET_NO":"999","MEAN_ANOMALY":"259.9901","TLE_LINE1":"1 48574U 21041X   22054.00001157  .00042287  00000-0  28431-2 0  9996","OBJECT_NAME":"STARLINK-2225","COUNTRY_CODE":"US","ARG_OF_PERICENTER":"60.3697","REV_AT_EPOCH":"356","LAUNCH_DATE":"2021-05-15","TIME_SYSTEM":"UTC","FILE":"3314780","ECCENTRICITY":"0.00018490","GP_ID":"196686289"}];
